NORAD_CAT_ID,OBJECT_NAME,OBJECT_TYPE,EPOCH,MEAN_MOTION,ECCENTRICITY,INCLINATION,RA_OF_ASC_NODE,ARG_OF_PERICENTER,MEAN_ANOMALY,BSTAR,MEAN_MOTION_DOT,MEAN_MOTION_DDOT,TLE_LINE0,TLE_LINE1,TLE_LINE2,SEMIMAJOR_AXIS,PERIOD,APOGEE,PERIGEE,DECAYED
50199.0,STARLINK-3270,PAYLOAD,2023-11-14 12:12:42,15.08831129,0.0001467,53.2176,77.7734,81.4614,278.6544,3.0932e-05,2.04e-06,0.0,0 STARLINK-3270,1 50199U 21125AV  23318.50881946  .00000204  00000-0  30932-4 0  9990,2 50199  53.2176  77.7734 0001467  81.4614 278.6544 15.08831129108505,6917.908,95.438,540.787,538.758,0.0
50199.0,STARLINK-3270,PAYLOAD,2023-11-15 12:03:26,15.08842438,0.0001535,53.2172,73.3065,98.1809,261.9357,-0.00015182,-2.704e-05,0.0,0 STARLINK-3270,1 50199U 21125AV  23319.50238997 -.00002704  00000-0 -15182-3 0  9991,2 50199  53.2172  73.3065 0001535  98.1809 261.9357 15.08842438108655,6917.873,95.437,540.8,538.676,0.0
50199.0,STARLINK-3270,PAYLOAD,2023-11-16 00:46:33,15.08820205,0.0001339,53.2185,70.9326,95.8385,264.2759,1.711e-05,-1.6e-07,0.0,0 STARLINK-3270,1 50199U 21125AV  23320.03233151 -.00000016  00000-0  17110-4 0  9995,2 50199  53.2185  70.9326 0001339  95.8385 264.2759 15.08820205108736,6917.941,95.439,540.732,538.88,0.0
50199.0,STARLINK-3270,PAYLOAD,2023-11-16 16:40:24,15.08826586,0.0001256,53.2185,67.9591,91.3808,268.7328,-2.9926e-05,-7.64e-06,0.0,0 STARLINK-3270,1 50199U 21125AV  23320.69473372 -.00000764  00000-0 -29926-4 0  9997,2 50199  53.2185  67.9591 0001256  91.3808 268.7328 15.08826586109319,6917.921,95.438,540.655,538.917,0.0
50199.0,STARLINK-3270,PAYLOAD,2023-11-17 11:45:02,15.08823979,0.0001197,53.2178,64.3931,85.8828,274.2301,0.00023202,3.405e-05,0.0,0 STARLINK-3270,1 50199U 21125AV  23321.48960983  .00003405  00000-0  23202-3 0  9997,2 50199  53.2178  64.3931 0001197  85.8828 274.2301 15.08823979108959,6917.929,95.439,540.622,538.966,0.0
50199.0,STARLINK-3270,PAYLOAD,2023-11-17 13:20:25,15.08827382,0.000132,53.2167,64.0952,85.3322,274.7821,0.00032698,4.918e-05,0.0,0 STARLINK-3270,1 50199U 21125AV  23321.55585279  .00004918  00000-0  32698-3 0  9995,2 50199  53.2167  64.0952 0001320  85.3322 274.7821 15.08827382109448,6917.919,95.438,540.697,538.871,0.0
50199.0,STARLINK-3270,PAYLOAD,2023-11-18 13:11:13,15.08829686,0.0001526,53.2167,59.6338,95.2245,264.8921,0.00059363,9.17e-05,0.0,0 STARLINK-3270,1 50199U 21125AV  23322.54946377  .00009170  00000-0  59363-3 0  9998,2 50199  53.2167  59.6338 0001526  95.2245 264.8921 15.08829686109112,6917.912,95.438,540.833,538.721,0.0
50199.0,STARLINK-3270,PAYLOAD,2023-11-19 13:01:59,15.08844407,0.0001483,53.218,55.1741,93.5463,266.5699,0.00017625,2.518e-05,0.0,0 STARLINK-3270,1 50199U 21125AV  23323.54305522  .00002518  00000-0  17625-3 0  9994,2 50199  53.2180  55.1741 0001483  93.5463 266.5699 15.08844407109749,6917.867,95.437,540.758,538.706,0.0
50199.0,STARLINK-3270,PAYLOAD,2023-11-20 12:52:47,15.08841526,0.0001439,53.2186,50.7102,97.6263,262.4893,3.3388e-05,2.43e-06,0.0,0 STARLINK-3270,1 50199U 21125AV  23324.53665539  .00000243  00000-0  33388-4 0  9999,2 50199  53.2186  50.7102 0001439  97.6263 262.4893 15.08841526109415,6917.876,95.437,540.736,538.745,0.0
50199.0,STARLINK-3270,PAYLOAD,2023-11-21 01:35:52,15.08834451,0.0001205,53.2182,48.3356,96.9285,263.1844,-4.6493e-05,-1.028e-05,0.0,0 STARLINK-3270,1 50199U 21125AV  23325.06658100 -.00001028  00000-0 -46493-4 0  9999,2 50199  53.2182  48.3356 0001205  96.9285 263.1844 15.08834451109493,6917.897,95.438,540.596,538.929,0.0
50199.0,STARLINK-3270,PAYLOAD,2023-11-21 11:08:10,15.08847508,0.0001278,53.2179,46.5513,94.6342,265.4796,0.00016686,2.369e-05,0.0,0 STARLINK-3270,1 50199U 21125AV  23325.46401535  .00002369  00000-0  16686-3 0  9998,2 50199  53.2179  46.5513 0001278  94.6342 265.4796 15.08847508109558,6917.857,95.437,540.607,538.838,0.0
50199.0,STARLINK-3270,PAYLOAD,2023-11-22 12:34:20,15.0886554,0.0001273,53.2171,41.7928,95.6568,264.457,0.00059257,9.162e-05,0.0,0 STARLINK-3270,1 50199U 21125AV  23326.52384788  .00009162  00000-0  59257-3 0  9995,2 50199  53.2171  41.7928 0001273  95.6568 264.4570 15.08865540110190,6917.802,95.436,540.548,538.787,0.0
50199.0,STARLINK-3270,PAYLOAD,2023-11-23 10:49:44,15.08842452,0.000164,53.2183,37.6306,63.4062,296.7098,9.2392e-06,-1.41e-06,0.0,0 STARLINK-3270,1 50199U 21125AV  23327.45121430 -.00000141  00000-0  92392-5 0  9999,2 50199  53.2183  37.6306 0001640  63.4062 296.7098 15.08842452109858,6917.873,95.437,540.872,538.603,0.0
50199.0,STARLINK-3270,PAYLOAD,2023-11-23 12:25:07,15.08847953,0.0001387,53.2176,37.3329,104.6425,255.4721,7.3642e-05,8.85e-06,0.0,0 STARLINK-3270,1 50199U 21125AV  23327.51744998  .00000885  00000-0  73642-4 0  9996,2 50199  53.2176  37.3329 0001387 104.6425 255.4721 15.08847953110343,6917.856,95.437,540.681,538.762,0.0
50199.0,STARLINK-3270,PAYLOAD,2023-11-24 04:18:59,15.0882749,0.0001449,53.2175,34.3584,96.5723,263.5434,-0.00030291,-5.104e-05,0.0,0 STARLINK-3270,1 50199U 21125AV  23328.17985838 -.00005104  00000-0 -30291-3 0  9992,2 50199  53.2175  34.3584 0001449  96.5723 263.5434 15.08827490109962,6917.919,95.438,540.786,538.781,0.0
50199.0,STARLINK-3270,PAYLOAD,2023-11-24 12:15:55,15.08832004,0.0001445,53.2175,32.8726,82.4371,277.6785,-0.00014756,-2.635e-05,0.0,0 STARLINK-3270,1 50199U 21125AV  23328.51106351 -.00002635  00000-0 -14756-3 0  9999,2 50199  53.2175  32.8726 0001445  82.4371 277.6785 15.08832004110494,6917.905,95.438,540.769,538.77,0.0
50199.0,STARLINK-3270,PAYLOAD,2023-11-25 04:09:47,15.08837834,0.0001393,53.2176,29.8987,87.4833,272.6319,0.00028682,4.279e-05,0.0,0 STARLINK-3270,1 50199U 21125AV  23329.17346661  .00004279  00000-0  28682-3 0  9999,2 50199  53.2176  29.8987 0001393  87.4833 272.6319 15.08837834110113,6917.887,95.438,540.716,538.788,0.0
50199.0,STARLINK-3270,PAYLOAD,2023-11-25 10:31:19,15.08854624,0.0001496,53.2172,28.7103,81.2193,278.8969,0.00062801,9.725e-05,0.0,0 STARLINK-3270,1 50199U 21125AV  23329.43842353  .00009725  00000-0  62801-3 0  9999,2 50199  53.2172  28.7103 0001496  81.2193 278.8969 15.08854624110634,6917.836,95.437,540.736,538.666,0.0
50199.0,STARLINK-3270,PAYLOAD,2023-11-26 10:22:05,15.08872414,0.0001534,53.2193,24.2544,74.0453,286.0708,0.00054149,8.348e-05,0.0,0 STARLINK-3270,1 50199U 21125AV  23330.43201003  .00008348  00000-0  54149-3 0  9998,2 50199  53.2193  24.2544 0001534  74.0453 286.0708 15.08872414110784,6917.781,95.436,540.708,538.585,0.0
50199.0,STARLINK-3270,PAYLOAD,2023-11-27 03:51:21,15.08799817,0.000145,53.22,20.9769,3.8452,356.2551,-0.0011827,-0.0001904,0.0,0 STARLINK-3270,1 50199U 21125AV  23331.16066435 -.00019040  00000-0 -11827-2 0  9995,2 50199  53.2200  20.9769 0001450   3.8452 356.2551 15.08799817110412,6918.003,95.44,540.871,538.865,0.0
50199.0,STARLINK-3270,PAYLOAD,2023-11-27 10:12:54,15.08811408,0.0001471,53.219,19.7887,84.7366,275.3794,-0.00059339,-9.712e-05,0.0,0 STARLINK-3270,1 50199U 21125AV  23331.42562763 -.00009712  00000-0 -59339-3 0  9995,2 50199  53.2190  19.7887 0001471  84.7366 275.3794 15.08811408110457,6917.968,95.439,540.85,538.815,0.0
50199.0,STARLINK-3270,PAYLOAD,2023-11-28 10:03:42,15.08844046,0.000189,53.2196,15.3344,93.1081,267.0127,0.0011263,0.00017685,0.0,0 STARLINK-3270,1 50199U 21125AV  23332.41923662  .00017685  00000-0  11263-2 0  9993,2 50199  53.2196  15.3344 0001890  93.1081 267.0127 15.08844046110605,6917.868,95.437,541.04,538.426,0.0
50199.0,STARLINK-3270,PAYLOAD,2023-11-29 08:19:05,15.0885647,0.0001852,53.2187,11.1657,94.6886,265.4317,0.00044371,6.784e-05,0.0,0 STARLINK-3270,1 50199U 21125AV  23333.34659009  .00006784  00000-0  44371-3 0  9992,2 50199  53.2187  11.1657 0001852  94.6886 265.4317 15.08856470110745,6917.83,95.437,540.976,538.414,0.0
50199.0,STARLINK-3270,PAYLOAD,2023-11-30 11:20:38,15.08850146,0.0001923,53.2182,6.108,87.9221,272.1991,0.00013724,1.897e-05,0.0,0 STARLINK-3270,1 50199U 21125AV  23334.47266718  .00001897  00000-0  13724-3 0  9996,2 50199  53.2182   6.1080 0001923  87.9221 272.1991 15.08850146110917,6917.849,95.437,541.045,538.384,0.0
50199.0,STARLINK-3270,PAYLOAD,2023-12-01 09:36:02,15.08840838,0.0001889,53.2185,1.9493,100.7637,259.3568,0.00013435,1.851e-05,0.0,0 STARLINK-3270,1 50199U 21125AV  23335.40003411  .00001851  00000-0  13435-3 0  9998,2 50199  53.2185   1.9493 0001889 100.7637 259.3568 15.08840838111057,6917.878,95.438,541.05,538.436,0.0
50199.0,STARLINK-3270,PAYLOAD,2023-12-02 01:29:53,15.08854651,0.0001649,53.218,358.9704,101.9766,258.1411,0.00033773,5.093e-05,0.0,0 STARLINK-3270,1 50199U 21125AV  23336.06242629  .00005093  00000-0  33773-3 0  9996,2 50199  53.2180 358.9704 0001649 101.9766 258.1411 15.08854651111155,6917.836,95.437,540.841,538.56,0.0
50199.0,STARLINK-3270,PAYLOAD,2023-12-02 11:02:11,15.08914374,0.0001717,53.2172,357.1897,91.093,269.0258,0.0024367,0.00038785,0.0,0 STARLINK-3270,1 50199U 21125AV  23336.45985114  .00038785  00000-0  24367-2 0  9994,2 50199  53.2172 357.1897 0001717  91.0930 269.0258 15.08914374111214,6917.653,95.433,540.706,538.33,0.0
50199.0,STARLINK-3270,PAYLOAD,2023-12-03 01:20:40,15.08818315,0.0002013,53.2176,354.5151,66.6283,293.4921,-0.0001152,-2.12e-05,0.0,0 STARLINK-3270,1 50199U 21125AV  23337.05602914 -.00002120  00000-0 -11520-3 0  9999,2 50199  53.2176 354.5151 0002013  66.6283 293.4921 15.08818315111307,6917.947,95.439,541.204,538.419,0.0
50199.0,STARLINK-3270,PAYLOAD,2023-12-03 07:42:13,15.08812706,0.0001022,53.2174,353.3232,69.5466,290.5636,-0.00044974,-7.433e-05,0.0,0 STARLINK-3270,1 50199U 21125AV  23337.32099316 -.00007433  00000-0 -44974-3 0  9996,2 50199  53.2174 353.3232 0001022  69.5466 290.5636 15.08812706111822,6917.964,95.439,540.536,539.122,0.0
50199.0,STARLINK-3270,PAYLOAD,2023-12-03 12:28:23,15.08809963,0.0001391,53.2178,352.428,78.6438,281.471,-0.0001826,-3.19e-05,0.0,0 STARLINK-3270,1 50199U 21125AV  23337.51971860 -.00003190  00000-0 -18260-3 0  9995,2 50199  53.2178 352.4280 0001391  78.6438 281.4710 15.08809963111371,6917.972,95.439,540.799,538.875,0.0
